{
  "type": "FeatureCollection",
  "features": [
    {
      "type": "Feature",
      "properties": {
        "norad_id": 29850,
        "name": "FENGYUN 1C DEB",
        "group": "fengyun-1c-debris",
        "lat": 53.42655305835175,
        "lon": -101.2732384840946,
        "alt_km": 918.2032204038869,
        "timestamp": "2025-12-08T17:43:05.202717+00:00",
        "meta_object_name": "FENGYUN 1C DEB",
        "meta_object_id": "1999-025EU",
        "meta_epoch": "2025-12-07T17:44:45.583872",
        "meta_mean_motion": 13.99829747,
        "meta_eccentricity": 0.01028608,
        "meta_inclination": 98.1228,
        "meta_ra_of_asc_node": 268.9376,
        "meta_arg_of_pericenter": 303.8457,
        "meta_mean_anomaly": 118.6331,
        "meta_ephemeris_type": 0,
        "meta_classification_type": "U",
        "meta_norad_cat_id": 29850,
        "meta_element_set_no": 999,
        "meta_rev_at_epoch": 95950,
        "meta_bstar": 0.002301041,
        "meta_mean_motion_dot": 3.495e-05,
        "meta_mean_motion_ddot": 0,
        "tle_line1": "1 29850U 99025EU  25341.73941648  .00003495  00000+0  23010-2 0  9994",
        "tle_line2": "2 29850  98.1228 268.9376 0102860 303.8457 118.6331 13.99829747959504"
      },
      "geometry": {
        "type": "Point",
        "coordinates": [
          -101.2732384840946,
          53.42655305835175
        ]
      }
    },
    {
      "type": "Feature",
      "properties": {
        "norad_id": 29851,
        "name": "FENGYUN 1C DEB",
        "group": "fengyun-1c-debris",
        "lat": -52.67804412679275,
        "lon": -169.21898434699023,
        "alt_km": 854.2827849570931,
        "timestamp": "2025-12-08T17:43:05.202728+00:00",
        "meta_object_name": "FENGYUN 1C DEB",
        "meta_object_id": "1999-025EV",
        "meta_epoch": "2025-12-08T03:02:10.080384",
        "meta_mean_motion": 13.83593221,
        "meta_eccentricity": 0.01419775,
        "meta_inclination": 99.5848,
        "meta_ra_of_asc_node": 22.9623,
        "meta_arg_of_pericenter": 239.7279,
        "meta_mean_anomaly": 188.6096,
        "meta_ephemeris_type": 0,
        "meta_classification_type": "U",
        "meta_norad_cat_id": 29851,
        "meta_element_set_no": 999,
        "meta_rev_at_epoch": 95303,
        "meta_bstar": 0.00050272475,
        "meta_mean_motion_dot": 5.52e-06,
        "meta_mean_motion_ddot": 0,
        "tle_line1": "1 29851U 99025EV  25342.12650556  .00000552  00000+0  50272-3 0  9996",
        "tle_line2": "2 29851  99.5848  22.9623 0141977 239.7279 188.6096 13.83593221953037"
      },
      "geometry": {
        "type": "Point",
        "coordinates": [
          -169.21898434699023,
          -52.67804412679275
        ]
      }
    },
    {
      "type": "Feature",
      "properties": {
        "norad_id": 29852,
        "name": "FENGYUN 1C DEB",
        "group": "fengyun-1c-debris",
        "lat": 80.22140927310171,
        "lon": -80.99485958280864,
        "alt_km": 833.492999065068,
        "timestamp": "2025-12-08T17:43:05.202738+00:00",
        "meta_object_name": "FENGYUN 1C DEB",
        "meta_object_id": "1999-025EW",
        "meta_epoch": "2025-12-08T07:23:29.159232",
        "meta_mean_motion": 14.07032561,
        "meta_eccentricity": 0.01351364,
        "meta_inclination": 99.3714,
        "meta_ra_of_asc_node": 351.9334,
        "meta_arg_of_pericenter": 162.1773,
        "meta_mean_anomaly": 268.2153,
        "meta_ephemeris_type": 0,
        "meta_classification_type": "U",
        "meta_norad_cat_id": 29852,
        "meta_element_set_no": 999,
        "meta_rev_at_epoch": 95922,
        "meta_bstar": 0.0021720955,
        "meta_mean_motion_dot": 3.898e-05,
        "meta_mean_motion_ddot": 0,
        "tle_line1": "1 29852U 99025EW  25342.30797638  .00003898  00000+0  21721-2 0  9992",
        "tle_line2": "2 29852  99.3714 351.9334 0135136 162.1773 268.2153 14.07032561959228"
      },
      "geometry": {
        "type": "Point",
        "coordinates": [
          -80.99485958280864,
          80.22140927310171
        ]
      }
    },
    {
      "type": "Feature",
      "properties": {
        "norad_id": 29853,
        "name": "FENGYUN 1C DEB",
        "group": "fengyun-1c-debris",
        "lat": 71.11060808538257,
        "lon": 78.90350649613434,
        "alt_km": 1019.293958767179,
        "timestamp": "2025-12-08T17:43:05.202749+00:00",
        "meta_object_name": "FENGYUN 1C DEB",
        "meta_object_id": "1999-025EX",
        "meta_epoch": "2025-12-08T07:01:16.497984",
        "meta_mean_motion": 13.93769292,
        "meta_eccentricity": 0.01612945,
        "meta_inclination": 98.4585,
        "meta_ra_of_asc_node": 104.2731,
        "meta_arg_of_pericenter": 234.887,
        "meta_mean_anomaly": 123.7084,
        "meta_ephemeris_type": 0,
        "meta_classification_type": "U",
        "meta_norad_cat_id": 29853,
        "meta_element_set_no": 999,
        "meta_rev_at_epoch": 95607,
        "meta_bstar": 0.0024218196,
        "meta_mean_motion_dot": 3.513e-05,
        "meta_mean_motion_ddot": 0,
        "tle_line1": "1 29853U 99025EX  25342.29255206  .00003513  00000+0  24218-2 0  9999",
        "tle_line2": "2 29853  98.4585 104.2731 0161294 234.8870 123.7084 13.93769292956074"
      },
      "geometry": {
        "type": "Point",
        "coordinates": [
          78.90350649613434,
          71.11060808538257
        ]
      }
    },
    {
      "type": "Feature",
      "properties": {
        "norad_id": 29854,
        "name": "FENGYUN 1C DEB",
        "group": "fengyun-1c-debris",
        "lat": 62.04104324242363,
        "lon": -18.700025335923534,
        "alt_km": 882.8903117367563,
        "timestamp": "2025-12-08T17:43:05.202759+00:00",
        "meta_object_name": "FENGYUN 1C DEB",
        "meta_object_id": "1999-025EY",
        "meta_epoch": "2025-12-07T22:49:07.826592",
        "meta_mean_motion": 13.83336808,
        "meta_eccentricity": 0.01474455,
        "meta_inclination": 98.9272,
        "meta_ra_of_asc_node": 143.3277,
        "meta_arg_of_pericenter": 63.6937,
        "meta_mean_anomaly": 91.9989,
        "meta_ephemeris_type": 0,
        "meta_classification_type": "U",
        "meta_norad_cat_id": 29854,
        "meta_element_set_no": 999,
        "meta_rev_at_epoch": 95277,
        "meta_bstar": 0.0003619083,
        "meta_mean_motion_dot": 3.92e-06,
        "meta_mean_motion_ddot": 0,
        "tle_line1": "1 29854U 99025EY  25341.95078503  .00000392  00000+0  36191-3 0  9991",
        "tle_line2": "2 29854  98.9272 143.3277 0147445  63.6937  91.9989 13.83336808952771"
      },
      "geometry": {
        "type": "Point",
        "coordinates": [
          -18.700025335923534,
          62.04104324242363
        ]
      }
    },
    {
      "type": "Feature",
      "properties": {
        "norad_id": 29855,
        "name": "FENGYUN 1C DEB",
        "group": "fengyun-1c-debris",
        "lat": 16.067729556951985,
        "lon": -77.52579031571662,
        "alt_km": 787.1809043815865,
        "timestamp": "2025-12-08T17:43:05.202770+00:00",
        "meta_object_name": "FENGYUN 1C DEB",
        "meta_object_id": "1999-025EZ",
        "meta_epoch": "2025-12-08T02:18:23.093568",
        "meta_mean_motion": 14.01526672,
        "meta_eccentricity": 0.01840739,
        "meta_inclination": 98.1814,
        "meta_ra_of_asc_node": 284.2726,
        "meta_arg_of_pericenter": 59.2331,
        "meta_mean_anomaly": 320.3151,
        "meta_ephemeris_type": 0,
        "meta_classification_type": "U",
        "meta_norad_cat_id": 29855,
        "meta_element_set_no": 999,
        "meta_rev_at_epoch": 95647,
        "meta_bstar": 0.0027994163,
        "meta_mean_motion_dot": 4.874e-05,
        "meta_mean_motion_ddot": 0,
        "tle_line1": "1 29855U 99025EZ  25342.09610062  .00004874  00000+0  27994-2 0  9999",
        "tle_line2": "2 29855  98.1814 284.2726 0184073  59.2331 320.3151 14.01526672956479"
      },
      "geometry": {
        "type": "Point",
        "coordinates": [
          -77.52579031571662,
          16.067729556951985
        ]
      }
    },
    {
      "type": "Feature",
      "properties": {
        "norad_id": 29856,
        "name": "FENGYUN 1C DEB",
        "group": "fengyun-1c-debris",
        "lat": -22.176652861958353,
        "lon": 80.15750342154448,
        "alt_km": 572.1877344416926,
        "timestamp": "2025-12-08T17:43:05.202780+00:00",
        "meta_object_name": "FENGYUN 1C DEB",
        "meta_object_id": "1999-025FA",
        "meta_epoch": "2025-12-08T04:49:31.984032",
        "meta_mean_motion": 14.47568428,
        "meta_eccentricity": 0.02630082,
        "meta_inclination": 98.6891,
        "meta_ra_of_asc_node": 76.0313,
        "meta_arg_of_pericenter": 311.619,
        "meta_mean_anomaly": 106.8486,
        "meta_ephemeris_type": 0,
        "meta_classification_type": "U",
        "meta_norad_cat_id": 29856,
        "meta_element_set_no": 999,
        "meta_rev_at_epoch": 96309,
        "meta_bstar": 0.0028366967,
        "meta_mean_motion_dot": 0.00016133,
        "meta_mean_motion_ddot": 0,
        "tle_line1": "1 29856U 99025FA  25342.20106463  .00016133  00000+0  28367-2 0  9994",
        "tle_line2": "2 29856  98.6891  76.0313 0263008 311.6190 106.8486 14.47568428963092"
      },
      "geometry": {
        "type": "Point",
        "coordinates": [
          80.15750342154448,
          -22.176652861958353
        ]
      }
    }
  ]
}